     2.100          NAVIGATION                              RINEX VERSION / TYPE
fic2rin                                 08/27/2010 00:20:19 PGM / RUN BY / DATE
                                                            END OF HEADER
 6 10  8 26 18  0  0.0  .518511049449D-03 -.150066625793D-10  .000000000000D+00
     .280000000000D+02 -.760937500000D+02  .513628537547D-08  .262857775139D+01
    -.370666384697D-05  .621297594626D-02  .917911529541D-05  .515366172409D+04
     .410400000000D+06  .137835741043D-06  .292265395769D+01  .596046447754D-07
     .935283345780D+00  .185937500000D+03 -.975378337406D+00 -.827213028172D-08
    -.456804742037D-09  .100000000000D+01  .159800000000D+04  .000000000000D+00
     .240000000000D+01  .000000000000D+00 -.512227416039D-08  .280000000000D+02
     .403206000000D+06  .400000000000D+01
 7 10  8 26 18  0  0.0 -.194832682610D-05  .000000000000D+00  .000000000000D+00
     .700000000000D+02  .722812500000D+02  .423839083170D-08 -.108336954269D+01
     .355206429958D-05  .398218864575D-02  .889971852303D-05  .515369584084D+04
     .410400000000D+06 -.186264514923D-08  .883407474862D+00 -.540167093277D-07
     .972458452398D+00  .212500000000D+03  .306440348836D+01 -.790782939284D-08
     .517521556850D-09  .100000000000D+01  .159800000000D+04  .000000000000D+00
     .240000000000D+01  .000000000000D+00 -.102445483208D-07  .700000000000D+02
     .403206000000D+06  .400000000000D+01
 8 10  8 26 18  0  0.0  .651879236102D-05  .113686837722D-12  .000000000000D+00
     .550000000000D+02  .713750000000D+02  .382301638683D-08 -.169919190091D+01
     .331364572048D-05  .114031743724D-01  .892579555511D-05  .515366652489D+04
     .410400000000D+06 -.316649675369D-07  .953201224931D+00 -.130385160446D-06
     .993854545094D+00  .228687500000D+03  .312146448662D+01 -.767889128522D-08
     .667527805212D-09  .100000000000D+01  .159800000000D+04  .000000000000D+00
     .340000000000D+01  .000000000000D+00 -.372529029846D-08  .550000000000D+02
     .403206000000D+06  .400000000000D+01
 9 10  8 26 18  0  0.0  .266740098596D-04  .227373675443D-11  .000000000000D+00
     .410000000000D+02  .766250000000D+02  .396087927223D-08 -.183480152637D+01
     .428035855293D-05  .171185582876D-01  .981986522675D-05  .515370728683D+04
     .410400000000D+06  .264495611191D-06  .852897749243D+00  .303611159325D-06
     .981537913017D+00  .198062500000D+03  .154676314725D+01 -.764067540766D-08
     .536808074497D-09  .100000000000D+01  .159800000000D+04  .000000000000D+00
     .240000000000D+01  .000000000000D+00 -.558793544769D-08  .410000000000D+02
     .403206000000D+06  .400000000000D+01
10 10  8 26 18  0  0.0 -.506839714944D-04 -.102318153949D-11  .000000000000D+00
     .670000000000D+02 -.871875000000D+01  .502628079334D-08  .231710856387D+01
    -.543892383575D-06  .926268158946D-02  .319816172123D-05  .515350524139D+04
     .410400000000D+06 -.117346644402D-06 -.119256591305D+01 -.162050127983D-06
     .951837526345D+00  .314906250000D+03  .663823147859D+00 -.847070998193D-08
    -.746459664470D-10  .100000000000D+01  .159800000000D+04  .000000000000D+00
     .340000000000D+01  .000000000000D+00 -.279396772385D-08  .670000000000D+02
     .403206000000D+06  .400000000000D+01
11 10  8 26 18  0  0.0 -.852146185935D-04 -.261479726760D-11  .000000000000D+00
     .870000000000D+02  .442812500000D+02  .594274753929D-08 -.122270417159D+01
     .228174030781D-05  .110168891260D-01  .996887683868D-05  .515376818848D+04
     .410400000000D+06  .298023223877D-06 -.250182230447D+01  .113621354103D-06
     .888531822345D+00  .148750000000D+03  .832161467711D+00 -.866286084293D-08
     .910752222200D-10  .100000000000D+01  .159800000000D+04  .000000000000D+00
     .240000000000D+01  .000000000000D+00 -.116415321827D-07  .870000000000D+02
     .403206000000D+06  .400000000000D+01
12 10  8 26 18  0  0.0 -.791987404227D-04  .375166564481D-11  .000000000000D+00
     .370000000000D+02 -.150000000000D+02  .490556147918D-08 -.115518645726D+01
    -.743195414543D-06  .335559726227D-02  .308454036713D-05  .515361809731D+04
     .410400000000D+06  .391155481339D-07  .193790031813D+01 -.521540641785D-07
     .971570841482D+00  .326250000000D+03 -.339281845182D+00 -.844749472921D-08
     .446447167745D-10  .100000000000D+01  .159800000000D+04  .000000000000D+00
     .240000000000D+01  .000000000000D+00 -.116415321827D-07  .370000000000D+02
     .403206000000D+06  .400000000000D+01
13 10  8 26 18  0  0.0  .298887025565D-03 -.909494701773D-12  .000000000000D+00
     .350000000000D+02 -.413437500000D+02  .350978905394D-08  .131155358388D+01
    -.215508043766D-05  .438712979667D-02  .105015933514D-04  .515371766853D+04
     .410400000000D+06  .186264514923D-07 -.956513376793D-01 -.819563865662D-07
     .992493817694D+00  .192875000000D+03  .179967602503D+01 -.756567228348D-08
    -.206080012631D-09  .100000000000D+01  .159800000000D+04  .000000000000D+00
     .240000000000D+01  .000000000000D+00 -.107102096081D-07  .350000000000D+02
     .403206000000D+06  .400000000000D+01
14 10  8 26 18  0  0.0  .824341550469D-04  .375166564481D-11  .000000000000D+00
     .420000000000D+02 -.527812500000D+02  .370658296549D-08  .123036792542D+01
    -.273436307907D-05  .553983496502D-02  .106263905764D-04  .515356872559D+04
     .410400000000D+06 -.856816768646D-07 -.118018790425D+00 -.353902578354D-07
     .985685705629D+00  .184781250000D+03 -.213347553790D+01 -.772782189480D-08
    -.321441960776D-09  .100000000000D+01  .159800000000D+04  .000000000000D+00
     .240000000000D+01  .000000000000D+00 -.884756445885D-08  .420000000000D+02
     .403206000000D+06  .400000000000D+01
16 10  8 26 18  0  0.0 -.102818943560D-03 -.352429196937D-11  .000000000000D+00
     .850000000000D+02 -.125312500000D+02  .480448584041D-08  .280562665706D+01
    -.549480319023D-06  .583118374925D-02  .318139791489D-05  .515363761711D+04
     .410400000000D+06 -.135973095894D-06  .195544475818D+01  .838190317154D-07
     .972746840365D+00  .325656250000D+03 -.167680224692D+00 -.824855787126D-08
     .153577825704D-10  .100000000000D+01  .159800000000D+04  .000000000000D+00
     .240000000000D+01  .000000000000D+00 -.102445483208D-07  .850000000000D+02
     .403206000000D+06  .400000000000D+01
17 10  8 26 18  0  0.0  .168213155121D-03  .159161572810D-11  .000000000000D+00
     .410000000000D+02 -.611562500000D+02  .445625704956D-08  .176325028650D+01
    -.315904617310D-05  .555486313533D-02  .104717910290D-04  .515365570641D+04
     .410400000000D+06 -.149011611938D-06  .299852046357D+01  .912696123123D-07
     .960906980604D+00  .180531250000D+03 -.250689866971D+01 -.798818988303D-08
    -.416803075807D-09  .100000000000D+01  .159800000000D+04  .000000000000D+00
     .240000000000D+01  .000000000000D+00 -.102445483208D-07  .410000000000D+02
     .403206000000D+06  .400000000000D+01
18 10  8 26 18  0  0.0  .893417745829D-04  .227373675443D-11  .000000000000D+00
     .310000000000D+02 -.490625000000D+01  .526736226392D-08 -.313452576448D+01
    -.286847352982D-06  .118282958865D-01  .295042991638D-05  .515371562195D+04
     .410400000000D+06 -.931322574615D-08 -.119399536249D+01 -.124797224998D-06
     .935794198236D+00  .308156250000D+03 -.230432795123D+01 -.847606734794D-08
    -.196436753808D-10  .100000000000D+01  .159800000000D+04  .000000000000D+00
     .240000000000D+01  .000000000000D+00 -.107102096081D-07  .310000000000D+02
     .403206000000D+06  .400000000000D+01
19 10  8 26 18  0  0.0 -.607962720096D-04 -.306954461848D-11  .000000000000D+00
     .140000000000D+02 -.612187500000D+02  .455018953366D-08  .961164743844D+00
    -.304356217384D-05  .672542024404D-02  .992976129055D-05  .515378318787D+04
     .410400000000D+06  .614672899246D-07  .305328964705D+01  .577419996262D-07
     .958525386544D+00  .181437500000D+03 -.809201490719D-01 -.803319175754D-08
    -.452876006961D-09  .100000000000D+01  .159800000000D+04  .000000000000D+00
     .240000000000D+01  .000000000000D+00 -.149011611938D-07  .140000000000D+02
     .403206000000D+06  .400000000000D+01
20 10  8 26 18  0  0.0  .517577864230D-04 -.454747350886D-12  .000000000000D+00
     .310000000000D+02  .165625000000D+01  .529093467438D-08 -.283381316052D+01
     .201165676117D-06  .411652610637D-02  .301562249660D-05  .515354547119D+04
     .410400000000D+06 -.372529029846D-08 -.124797995375D+01 -.745058059692D-08
     .935727192199D+00  .308468750000D+03  .130890395982D+01 -.853928426689D-08
    -.378587198248D-10  .100000000000D+01  .159800000000D+04  .000000000000D+00
     .240000000000D+01  .000000000000D+00 -.791624188423D-08  .310000000000D+02
     .403206000000D+06  .400000000000D+01
21 10  8 26 18  0  0.0 -.837799161673D-04 -.261479726760D-11  .000000000000D+00
     .650000000000D+02  .690625000000D+02  .492520515456D-08 -.199152735611D+01
     .340677797794D-05  .168151655234D-01  .950135290623D-05  .515364688301D+04
     .410400000000D+06  .134110450745D-06 -.225070767046D+01 -.193715095520D-06
     .932388116793D+00  .179625000000D+03 -.244984525521D+01 -.805926427213D-08
     .498949354672D-09  .100000000000D+01  .159800000000D+04  .000000000000D+00
     .240000000000D+01  .000000000000D+00 -.121071934700D-07  .650000000000D+02
     .403206000000D+06  .400000000000D+01
22 10  8 26 18  0  0.0  .164376106113D-03 -.795807864051D-12  .000000000000D+00
     .101000000000D+03 -.309375000000D+01  .542236872056D-08  .224328930797D+01
    -.214204192162D-06  .558647303842D-02  .296346843243D-05  .515371284866D+04
     .410400000000D+06  .372529029846D-07 -.118927566839D+01 -.763684511185D-07
     .933482619435D+00  .307093750000D+03 -.194047308193D+01 -.864964600676D-08
    -.453590322429D-10  .100000000000D+01  .159800000000D+04  .000000000000D+00
     .340000000000D+01  .000000000000D+00 -.176951289177D-07  .101000000000D+03
     .403206000000D+06  .400000000000D+01
